[{"OBJECT_NAME":"STARLINK-1802","OBJECT_ID":"2020-073AJ","EPOCH":"2026-03-09T15:26:12.309792","MEAN_MOTION":15.30173346,"ECCENTRICITY":0.0001195,"INCLINATION":53.1596,"RA_OF_ASC_NODE":217.2753,"ARG_OF_PERICENTER":90.3398,"MEAN_ANOMALY":269.774,"EPHEMERIS_TYPE":0,"CLASSIFICATION_TYPE":"U","NORAD_CAT_ID":46702,"ELEMENT_SET_NO":999,"REV_AT_EPOCH":29747,"BSTAR":7.9571e-5,"MEAN_MOTION_DOT":1.996e-5,"MEAN_MOTION_DDOT":0},{"OBJECT_NAME":"ION SCV-008","OBJECT_ID":"2023-001AU","EPOCH":"2026-03-09T19:46:58.662912","MEAN_MOTION":15.2722664,"ECCENTRICITY":0.00151921,"INCLINATION":97.5676,"RA_OF_ASC_NODE":163.606,"ARG_OF_PERICENTER":8.542,"MEAN_ANOMALY":351.6074,"EPHEMERIS_TYPE":0,"CLASSIFICATION_TYPE":"U","NORAD_CAT_ID":55051,"ELEMENT_SET_NO":999,"REV_AT_EPOCH":17616,"BSTAR":0.00031422806,"MEAN_MOTION_DOT":8.336e-5,"MEAN_MOTION_DDOT":0}]
